[{"OBJECT_NAME":"LEMUR-2-PETERG","OBJECT_ID":"2017-042S","EPOCH":"2026-03-09T11:34:35.656032","MEAN_MOTION":15.29611459,"ECCENTRICITY":0.00037,"INCLINATION":97.398,"RA_OF_ASC_NODE":253.6596,"ARG_OF_PERICENTER":341.6938,"MEAN_ANOMALY":18.4169,"EPHEMERIS_TYPE":0,"CLASSIFICATION_TYPE":"U","NORAD_CAT_ID":42841,"ELEMENT_SET_NO":999,"REV_AT_EPOCH":47317,"BSTAR":0.00081076471,"MEAN_MOTION_DOT":0.0002324,"MEAN_MOTION_DDOT":0},{"OBJECT_NAME":"STARLINK-33888","OBJECT_ID":"2025-093AA","EPOCH":"2026-03-09T09:04:26.791968","MEAN_MOTION":15.27579017,"ECCENTRICITY":0.00012421,"INCLINATION":42.9995,"RA_OF_ASC_NODE":79.7112,"ARG_OF_PERICENTER":234.5308,"MEAN_ANOMALY":125.5428,"EPHEMERIS_TYPE":0,"CLASSIFICATION_TYPE":"U","NORAD_CAT_ID":63860,"ELEMENT_SET_NO":999,"REV_AT_EPOCH":4792,"BSTAR":0.0011708216,"MEAN_MOTION_DOT":0.00032096,"MEAN_MOTION_DDOT":0}]
