LEMUR-2-PETERG          
1 42841U 17042S   26068.48235713  .00023240  00000+0  81076-3 0  9993
2 42841  97.3980 253.6596 0003700 341.6938  18.4169 15.29611459473171
STARLINK-33888          
1 63860U 25093AA  26068.37808787  .00032096  00000+0  11708-2 0  9990
2 63860  42.9995  79.7112 0001242 234.5308 125.5428 15.27579017 47927
